STARLINK-5214           
1 54762U 22175E   23007.25001157 -.01198259  00000+0 -15964-1 0  9996
2 54762  53.2171 205.2484 0001139  85.4844 191.8124 15.60371410  2957
STARLINK-5191           
1 54763U 22175F   23007.25001157 -.01197950  00000+0 -15982-1 0  9994
2 54763  53.2171 205.2505 0001174  72.5119 203.5270 15.60334562  2953
STARLINK-5458           
1 54764U 22175G   23006.91667824 -.01198762  00000+0 -15402-1 0  9995
2 54764  53.2173 206.8642 0001322  87.0692 118.6719 15.61305042  1301
STARLINK-5466           
1 54765U 22175H   23007.25001157 -.01195782  00000+0 -15906-1 0  9993
2 54765  53.2171 205.2453 0001138  76.7754 201.7732 15.60406070  2966
STARLINK-5471           
1 54766U 22175J   23007.25001157 -.01193889  00000+0 -15809-1 0  9992
2 54766  53.2171 205.2382 0001097  67.5503 214.8303 15.60519006  2954
STARLINK-5472           
1 54767U 22175K   23006.91667824 -.01146906  00000+0 -14623-1 0  9995
2 54767  53.2133 206.8617 0001212  75.6573 133.7463 15.61380308  1303
STARLINK-5444           
1 54768U 22175L   23006.92581131  .00017737  00000+0  13069-3 0  9994
2 54768  53.2127 206.6173 0002134  54.6662 305.4558 15.73170346  5064
STARLINK-5404           
1 54769U 22175M   23007.25001157 -.01196141  00000+0 -15866-1 0  9992
2 54769  53.2171 205.2406 0001097  73.9193 207.1418 15.60480134  2951
STARLINK-5448           
1 54770U 22175N   23006.92561394  .00031388  00000+0  22755-3 0  9996
2 54770  53.2120 206.6169 0002702  68.0993 292.0314 15.73164000  5063
STARLINK-5451           
1 54771U 22175P   23006.92591728  .00056335  00000+0  40293-3 0  9997
2 54771  53.2127 206.6168 0001716  42.9221 317.1933 15.73210498  2908
STARLINK-5452           
1 54772U 22175Q   23006.92551297  .00022187  00000+0  16203-3 0  9997
2 54772  53.2141 206.6106 0000521  43.1200 316.9861 15.73206782  2908
STARLINK-5453           
1 54773U 22175R   23007.25001157 -.01194980  00000+0 -15779-1 0  9999
2 54773  53.2171 205.2306 0001477  38.3008 247.7223 15.60590915  2950
STARLINK-5454           
1 54774U 22175S   23006.92518420  .00021221  00000+0  15546-3 0  9997
2 54774  53.2122 206.6126 0002737  41.2190 318.9037 15.73164949  2904
STARLINK-5465           
1 54775U 22175T   23006.91667824 -.01198109  00000+0 -15288-1 0  9994
2 54775  53.2173 206.8476 0001176  78.7590 135.2744 15.61481319  2899
STARLINK-5470           
1 54776U 22175U   23007.25001157 -.01197018  00000+0 -15752-1 0  9998
2 54776  53.2131 205.2259 0000960  80.0557 211.3697 15.60688371  2951
STARLINK-5468           
1 54777U 22175V   23007.25001157 -.01195941  00000+0 -15754-1 0  9994
2 54777  53.2171 205.2235 0001134  61.9584 227.6249 15.60657896  2953
STARLINK-5450           
1 54778U 22175W   23006.92478082  .00047575  00000+0  33845-3 0  9992
2 54778  53.2126 206.6083 0000558  74.6454 285.4627 15.73408224  2906
STARLINK-5447           
1 54779U 22175X   23006.92496607  .00045825  00000+0  32921-3 0  9996
2 54779  53.2122 206.6076 0001713  33.9874 326.1256 15.73194661  2901
STARLINK-5449           
1 54780U 22175Y   23007.05042591  .00089930  00000+0  63635-3 0  9993
2 54780  53.2128 205.9699 0000741  66.0117 294.0981 15.73273053  2922
STARLINK-5443           
1 54781U 22175Z   23006.92482792  .00065636  00000+0  47212-3 0  9990
2 54781  53.2133 206.6095 0001006  71.4424 288.6705 15.73015863  2907
STARLINK-5437           
1 54782U 22175AA  23006.57723941  .00001490  00000+0  15062-4 0  9993
2 54782  53.2140 207.9791 0001828  61.9747 298.1458 15.73161312  5014
STARLINK-5439           
1 54783U 22175AB  23006.92467259  .00060278  00000+0  43026-3 0  9999
2 54783  53.2129 206.6069 0000645  56.0899 304.0183 15.73230821  2904
STARLINK-5442           
1 54784U 22175AC  23006.91667824 -.01146120  00000+0 -14519-1 0  9996
2 54784  53.2138 206.8398 0001125  92.8042 128.2265 15.61544645  1303
STARLINK-5440           
1 54785U 22175AD  23006.95739293  .00046011  00000+0  33059-3 0  9998
2 54785  53.2128 206.0857 0001863  86.7603 273.3630 15.73189379  2917
STARLINK-5438           
1 54786U 22175AE  23006.92392201  .00040151  00000+0  28952-3 0  9995
2 54786  53.2126 206.6030 0001694  57.9268 302.1916 15.73167460  2908
STARLINK-5441           
1 54787U 22175AF  23007.25001157 -.01196154  00000+0 -15697-1 0  9998
2 54787  53.2171 205.2095 0001116  70.5830 226.0937 15.60756646  2958
STARLINK-5399           
1 54788U 22175AG  23006.92369281  .00037778  00000+0  27243-3 0  9992
2 54788  53.2131 206.6021 0000711  84.6618 275.4484 15.73195583  2900
STARLINK-5446           
1 54789U 22175AH  23007.25001157 -.00749798  18507-3 -20126-2 0  9996
2 54789  53.2174 202.9051 0011943 153.6503 187.1521 15.93555212  2978
STARLINK-5445           
1 54790U 22175AJ  23006.91667824 -.00038206  00000+0 -26886-3 0  9999
2 54790  53.2130 206.6359 0001896  20.1106 301.3973 15.73212772  2900
STARLINK-5425           
1 54791U 22175AK  23006.92404135  .00026540  00000+0  19287-3 0  9998
2 54791  53.2137 206.6015 0000481  75.0007 285.1066 15.73205327  2905
STARLINK-5431           
1 54792U 22175AL  23007.25001157 -.01194937  00000+0 -15641-1 0  9990
2 54792  53.2171 205.1946 0001540  29.4245 274.8493 15.60815843  2955
STARLINK-5433           
1 54793U 22175AM  23006.92120684  .00049100  00000+0  35267-3 0  9997
2 54793  53.2146 206.5844 0001547  30.3251 329.7858 15.73169561  2908
STARLINK-5392           
1 54794U 22175AN  23007.25001157 -.01202115  00000+0 -15724-1 0  9992
2 54794  53.2171 205.1922 0001090  74.5922 230.8757 15.60854915  2952
STARLINK-5436           
1 54795U 22175AP  23007.05063789  .00022195  00000+0  16210-3 0  9998
2 54795  53.2125 205.9733 0001279  52.1961 307.9175 15.73205927  2928
STARLINK-5415           
1 54796U 22175AQ  23006.92288445  .00020822  00000+0  15238-3 0  9996
2 54796  53.2138 206.5964 0000619 123.4462 236.6617 15.73203354  2900
STARLINK-5435           
1 54797U 22175AR  23007.25001157 -.01197795  00000+0 -15709-1 0  9995
2 54797  53.2127 205.2001 0000909  77.5476 225.5603 15.60777852  2955
STARLINK-5420           
1 54798U 22175AS  23007.25001157 -.00094482  00000+0 -67509-3 0  9991
2 54798  53.2143 204.8873 0001357  53.7804  45.0924 15.73243273  2955
STARLINK-5421           
1 54799U 22175AT  23006.92080331  .00020702  00000+0  15166-3 0  9990
2 54799  53.2143 206.5848 0002218  21.6731 338.4382 15.73183018  2909
STARLINK-5428           
1 54800U 22175AU  23006.92244214  .00032901  00000+0  23794-3 0  9995
2 54800  53.2131 206.5951 0001356  53.2130 306.9015 15.73197840  5061
STARLINK-5429           
1 54801U 22175AV  23006.91667824 -.01142463  00000+0 -14376-1 0  9993
2 54801  53.2139 206.8133 0001416  80.2790 153.5158 15.61705195  1306
STARLINK-5426           
1 54802U 22175AW  23007.07392164  .00451334  97739-4  86582-3 0  9991
2 54802  53.2159 203.9156 0028657 112.6587 247.3532 15.99166421  2945
STARLINK-5430           
1 54803U 22175AX  23007.25001157 -.01196061  00000+0 -10831-1 0  9999
2 54803  53.2171 204.9833 0001031  75.9731 332.2253 15.69956140  2959
STARLINK-5422           
1 54804U 22175AY  23006.92213898  .00026322  00000+0  19110-3 0  9990
2 54804  53.2127 206.5936 0001595  52.2930 307.8235 15.73233256  2901
STARLINK-5417           
1 54805U 22175AZ  23006.92225405  .00007154  00000+0  55335-4 0  9990
2 54805  53.2140 206.5906 0000817 139.5744 220.5337 15.73201132  2904
STARLINK-5412           
1 54806U 22175BA  23007.04898175  .00052517  00000+0  37601-3 0  9993
2 54806  53.2130 205.9623 0001675  34.5891 325.5238 15.73215718  2926
STARLINK-5410           
1 54807U 22175BB  23007.11259815  .00071977  00000+0  51209-3 0  9995
2 54807  53.2133 205.6465 0001648  57.1944 302.9235 15.73235192  2936
STARLINK-5413           
1 54808U 22175BC  23006.92171811  .00020444  00000+0  14998-3 0  9990
2 54808  53.2137 206.5889 0001802  54.9896 305.1293 15.73160193  2908
STARLINK-5414           
1 54809U 22175BD  23006.60418841  .00002590  00000+0  22853-4 0  9995
2 54809  53.2135 208.1606 0000845  96.1693 263.9424 15.73208898  2857
STARLINK-5408           
1 54810U 22175BE  23006.54032285 -.00095577  00000+0 -68218-3 0  9997
2 54810  53.2125 208.4749 0002087  59.9067 300.2160 15.73270173  5008
STARLINK-5424           
1 54811U 22175BF  23007.11219938 -.00414399  00000+0 -31906-2 0  9994
2 54811  53.2129 205.6431 0006404 136.4353 223.7173 15.72452410  2933
FALCON 9 DEB            
1 54812U 22175BG  23002.79607910  .09286380  12350-4  38850-3 0  9991
2 54812  53.2081 224.0686 0013361 106.3260 253.9260 16.42360718  4459
FALCON 9 DEB            
1 54813U 22175BH  23002.73024737  .08410056  12309-4  47193-3 0  9998
2 54813  53.1917 224.3495 0014443 106.5951 253.6685 16.40949418  4444
FALCON 9 DEB            
1 54814U 22175BJ  23003.02458910  .13994124  12565-4  14279-3 0  9998
2 54814  53.2127 222.6220 0008324 119.0132 241.1757 16.50301001  4495
FALCON 9 DEB            
1 54815U 22175BK  23002.03974663  .06875518  12295-4  53386-3 0  9996
2 54815  53.2145 227.8639 0014492  98.1869 262.0823 16.39051281  4332
XW-4 (CAS-10)           
1 54816U 21035C   23006.55488100  .00142697  00000+0  14277-2 0  9998
2 54816  41.4784  60.6248 0005368 329.8102  30.2432 15.64308751  2924
2022-176A               
1 54818U 22176A   23007.21319537  .00209566  11564-4  10217-2 0  9999
2 54818  97.2725 148.1626 0314561 152.1283 332.0127 15.35892824  1679
2022-176B               
1 54819U 22176B   23006.92767228  .00317799  33269-4  89451-3 0  9992
2 54819  97.2249 148.3795 0162872 136.7030 224.7169 15.74958992  1679
STARLINK-5382           
1 54820U 22177A   23006.91667824 -.01055286  00000+0 -44966-2 0  9991
2 54820  42.9999 317.9915 0005688 266.2796 257.4110 15.86694262  1306
STARLINK-5385           
1 54821U 22177B   23007.25001157 -.01084626  00000+0 -48207-2 0  9993
2 54821  43.0001 315.9365 0002555 259.7249  10.4070 15.85964063  1715
